{
"type": "FeatureCollection",
"name": "oficina",
"crs": { "type": "name", "properties": { "name": "urn:ogc:def:crs:OGC:1.3:CRS84" } },
"features": [
{ "type": "Feature", "properties": { "fid": 1, "PROV_ID": "02", "PROV_NOMB": "COCLÉ", "ID1": 1, "SHAPE_Leng": 0.51044811044328087, "SHAPE_Area": 4949.7214046348272, "OFICE_LAT": 8.5162493456615067, "OFICE_LONG": -80.359983713810976, "PLUS_CODE": "66WXGJ8R+F2R" }, "geometry": { "type": "Point", "coordinates": [ -80.359983713810976, 8.516249345661507 ] } },
{ "type": "Feature", "properties": { "fid": 2, "PROV_ID": "05", "PROV_NOMB": "DARIÉN", "ID1": 2, "SHAPE_Leng": 2.0369461112407325, "SHAPE_Area": 12236.464756503539, "OFICE_LAT": 8.497779818864986, "OFICE_LONG": -77.980909703780256, "PLUS_CODE": "67W4F2X9+4J8" }, "geometry": { "type": "Point", "coordinates": [ -77.980909703780256, 8.497779818864986 ] } },
{ "type": "Feature", "properties": { "fid": 4, "PROV_ID": "03", "PROV_NOMB": "COLÓN", "ID1": 3, "SHAPE_Leng": 2.232683116742546, "SHAPE_Area": 4606.6479989225672, "OFICE_LAT": 9.3446910240672061, "OFICE_LONG": -79.892489325424478, "PLUS_CODE": "67X284V5+V2C" }, "geometry": { "type": "Point", "coordinates": [ -79.892489325424478, 9.344691024067206 ] } },
{ "type": "Feature", "properties": { "fid": 5, "PROV_ID": "13", "PROV_NOMB": "PANAMÁ OESTE", "ID1": 4, "SHAPE_Leng": 0.94131441019926287, "SHAPE_Area": 2894.8399759521208, "OFICE_LAT": 8.8720693690321326, "OFICE_LONG": -79.797458001990123, "PLUS_CODE": "67W2V6C3+R2F" }, "geometry": { "type": "Point", "coordinates": [ -79.797458001990123, 8.872069369032133 ] } },
{ "type": "Feature", "properties": { "fid": 8, "PROV_ID": "01", "PROV_NOMB": "BOCAS DEL TORO", "ID1": 5, "SHAPE_Leng": 1.3681189390004929, "SHAPE_Area": 4643.2679894366602, "OFICE_LAT": 9.4194308809525946, "OFICE_LONG": -82.521636340999507, "PLUS_CODE": "66XVCF9H+Q8H" }, "geometry": { "type": "Point", "coordinates": [ -82.521636340999507, 9.419430880952595 ] } },
{ "type": "Feature", "properties": { "fid": 9, "PROV_ID": "04", "PROV_NOMB": "CHIRIQUÍ", "ID1": 6, "SHAPE_Leng": 2.0820822635347183, "SHAPE_Area": 6540.1693544949421, "OFICE_LAT": 8.4294949116790008, "OFICE_LONG": -82.457706778379958, "PLUS_CODE": "66WVCGHR+QWV" }, "geometry": { "type": "Point", "coordinates": [ -82.457706778379958, 8.429494911679001 ] } },
{ "type": "Feature", "properties": { "fid": 10, "PROV_ID": "06", "PROV_NOMB": "HERRERA", "ID1": 7, "SHAPE_Leng": 0.32001361934875983, "SHAPE_Area": 2363.6748577439075, "OFICE_LAT": 7.9610970732832396, "OFICE_LONG": -80.42981597796998, "PLUS_CODE": "66VXXH6C+C3M" }, "geometry": { "type": "Point", "coordinates": [ -80.42981597796998, 7.96109707328324 ] } },
{ "type": "Feature", "properties": { "fid": 11, "PROV_ID": "07", "PROV_NOMB": "LOS SANTOS", "ID1": 8, "SHAPE_Leng": 0.40226424824587159, "SHAPE_Area": 3812.7108440715433, "OFICE_LAT": 7.7822361465604226, "OFICE_LONG": -80.273553355010833, "PLUS_CODE": "66VXQPJG+VHW" }, "geometry": { "type": "Point", "coordinates": [ -80.273553355010833, 7.782236146560423 ] } },
{ "type": "Feature", "properties": { "fid": 12, "PROV_ID": "09", "PROV_NOMB": "VERAGUAS", "ID1": 9, "SHAPE_Leng": 2.1715449505521054, "SHAPE_Area": 10568.221179794749, "OFICE_LAT": 8.1017511755014748, "OFICE_LONG": -80.970803028695855, "PLUS_CODE": "66WX422H+PM4" }, "geometry": { "type": "Point", "coordinates": [ -80.970803028695855, 8.101751175501475 ] } },
{ "type": "Feature", "properties": { "fid": 13, "PROV_ID": "08", "PROV_NOMB": "PANAMÁ", "ID1": 10, "SHAPE_Leng": 2.2321616648246603, "SHAPE_Area": 8428.2254989499834, "OFICE_LAT": 8.97574613, "OFICE_LONG": -79.52640012000001, "PLUS_CODE": "67W2XFGF+7CX" }, "geometry": { "type": "Point", "coordinates": [ -79.52640012, 8.97574613 ] } }
]
}
